OBJECT_NAME,OBJECT_ID,EPOCH,MEAN_MOTION,ECCENTRICITY,INCLINATION,RA_OF_ASC_NODE,ARG_OF_PERICENTER,MEAN_ANOMALY,EPHEMERIS_TYPE,CLASSIFICATION_TYPE,NORAD_CAT_ID,ELEMENT_SET_NO,REV_AT_EPOCH,BSTAR,MEAN_MOTION_DOT,MEAN_MOTION_DDOT
STARLINK-4624,2022-105AN,2025-10-31T05:50:02.321088,15.01261597,.00007021,97.6027,183.5423,130.5190,229.6096,0,U,53684,999,17379,.13010994E-3,.1613E-4,0
STARLINK-4626,2022-105AP,2025-10-31T05:15:45.296064,15.01263083,.00022689,97.6027,183.4694,84.6697,275.4786,0,U,53685,999,17381,.6871834E-4,.825E-5,0
STARLINK-4467,2022-105AQ,2025-10-31T06:11:23.171712,15.01269481,.00039308,97.6002,183.5534,81.9115,278.2555,0,U,53686,999,17382,.46330902E-3,.59E-4,0
STARLINK-4569,2022-105AR,2025-10-31T05:48:13.044960,15.05640516,.00020628,97.6001,183.5855,82.2708,277.8753,0,U,53687,999,17382,.13602242E-3,.1902E-4,0
STARLINK-4571,2022-105AS,2025-10-31T05:07:24.547584,15.01256280,.0003353,97.6020,183.4602,78.8679,281.2922,0,U,53688,999,17381,.13133802E-3,.1629E-4,0
STARLINK-4570,2022-105AU,2025-10-31T05:39:24.070464,15.01261093,.00005833,97.6012,183.4144,125.6934,234.4345,0,U,53690,999,17381,.47182372E-4,.548E-5,0
STARLINK-4560,2022-105AV,2025-10-31T05:12:19.734912,15.05648963,.0002111,97.5990,183.6003,91.6917,268.4551,0,U,53691,999,17382,.56816793E-4,.759E-5,0
STARLINK-4572,2022-105AW,2025-10-31T06:11:27.064896,15.12767490,.00052485,97.6320,185.4182,29.3050,330.8474,0,U,53692,999,17393,.25288573E-2,.4454E-3,0
STARLINK-4566,2022-105AX,2025-10-31T05:44:14.126496,15.05651267,.00020053,97.6005,183.7124,79.4535,280.6917,0,U,53693,999,17383,.89805412E-4,.1235E-4,0
STARLINK-4725,2022-107A,2025-10-30T03:51:09.569952,15.08838362,.00017153,53.2162,109.7131,88.3449,271.7740,0,U,53700,999,17515,.61149534E-4,.685E-5,0
STARLINK-4711,2022-107B,2025-10-30T03:45:50.361696,15.08848264,.00012213,53.2165,109.6902,81.1513,278.9618,0,U,53701,999,17515,.10346232E-3,.1359E-4,0
STARLINK-4724,2022-107C,2025-10-30T20:16:12.110304,15.08836356,.00012201,53.2159,91.9167,75.8423,284.2705,0,U,53702,999,17549,.1108555E-3,.1477E-4,0
STARLINK-4731,2022-107D,2025-10-30T20:00:55.663776,15.08834342,.00013442,53.2155,106.8100,85.2528,274.8618,0,U,53703,999,17525,.11928393E-3,.1611E-4,0
STARLINK-4714,2022-107E,2025-10-30T22:45:16.923456,15.08840563,.00012328,53.2164,106.8059,90.1495,269.9638,0,U,53704,999,17510,.30869902E-4,.203E-5,0
STARLINK-4717,2022-107F,2025-10-29T18:03:02.285856,15.08839158,.00013386,53.2158,112.1363,91.3715,268.7430,0,U,53705,999,17508,.10507501E-4,-.121E-5,0
STARLINK-4716,2022-107G,2025-10-30T20:43:21.795744,15.08843672,.00013334,53.2151,106.9919,86.0119,274.1026,0,U,53706,999,17525,.81066732E-4,.1003E-4,0
STARLINK-4667,2022-107H,2025-10-31T01:18:15.552288,15.08840168,.00011183,53.2177,91.0880,89.8046,270.3074,0,U,53707,999,17549,-.23089438E-4,-.655E-5,0
STARLINK-4694,2022-107J,2025-10-29T17:09:18.712224,15.08842863,.00014077,53.2161,96.9536,89.4837,270.6317,0,U,53708,999,17529,.33796143E-4,.25E-5,0
STARLINK-4685,2022-107K,2025-10-31T07:00:00.324288,15.08833077,.00012497,53.2161,109.7027,92.4340,267.6795,0,U,53709,999,17494,-.39568276E-4,-.917E-5,0
STARLINK-4627,2022-107M,2025-10-31T02:29:45.665664,15.08840466,.00013211,53.2172,110.6547,91.9121,268.2023,0,U,53711,999,17491,.96979268E-4,.1256E-4,0
STARLINK-4683,2022-107N,2025-10-30T05:12:36.462816,15.08841244,.00013459,53.2160,114.3790,87.6440,272.4706,0,U,53712,999,17480,.15329836E-4,-.44E-6,0
STARLINK-4686,2022-107R,2025-10-30T12:02:39.838272,15.08837922,.00013506,53.2155,118.2721,87.1700,272.9447,0,U,53715,999,17476,.780737E-5,-.164E-5,0
STARLINK-4699,2022-107S,2025-10-29T18:28:06.123648,15.08848012,.0001272,53.2142,121.5190,90.2722,269.8416,0,U,53716,999,17464,.83143232E-4,.1036E-4,0
STARLINK-4695,2022-107U,2025-10-31T06:47:35.920896,15.08769835,.00015935,53.2154,115.3137,103.9230,256.1940,0,U,53718,999,17486,.94405831E-3,.1474E-3,0
STARLINK-4644,2022-107V,2025-10-29T19:51:34.202880,15.08838993,.00015222,53.2177,91.2060,92.0562,268.0605,0,U,53719,999,17508,.14374563E-4,-.59E-6,0
STARLINK-4642,2022-107W,2025-10-30T08:57:13.747392,15.08816413,.00018799,53.2139,118.8871,96.8295,263.2911,0,U,53720,999,17474,-.18075828E-3,-.3162E-4,0
STARLINK-4707,2022-107X,2025-10-30T02:46:16.061952,15.08854414,.00009982,53.2149,120.1266,90.7417,269.3689,0,U,53721,999,17470,.53588534E-4,.566E-5,0
STARLINK-4700,2022-107Y,2025-10-29T18:59:58.334496,15.08831031,.00013141,53.2160,121.6550,93.4661,266.6481,0,U,53722,999,17464,.19617247E-3,.2835E-4,0
STARLINK-4705,2022-107Z,2025-10-30T05:30:29.879136,15.08847637,.00012642,53.2166,119.4223,91.3362,268.7775,0,U,53723,999,17486,.86325826E-4,.1087E-4,0
STARLINK-4663,2022-107AA,2025-10-29T12:22:29.406432,15.08837845,.00013886,53.2152,122.7777,87.7086,272.4065,0,U,53724,999,17461,.8689105E-5,-.15E-5,0
