STARLINK-4624           
1 53684U 22105AN  25304.24308242  .00001613  00000+0  13011-3 0  9994
2 53684  97.6027 183.5423 0000702 130.5190 229.6096 15.01261597173791
STARLINK-4626           
1 53685U 22105AP  25304.21927426  .00000825  00000+0  68718-4 0  9992
2 53685  97.6027 183.4694 0002268  84.6697 275.4786 15.01263083173811
STARLINK-4467           
1 53686U 22105AQ  25304.25790708  .00005900  00000+0  46331-3 0  9993
2 53686  97.6002 183.5534 0003930  81.9115 278.2555 15.01269481173825
STARLINK-4569           
1 53687U 22105AR  25304.24181765  .00001902  00000+0  13602-3 0  9993
2 53687  97.6001 183.5855 0002062  82.2708 277.8753 15.05640516173829
STARLINK-4571           
1 53688U 22105AS  25304.21347856  .00001629  00000+0  13134-3 0  9992
2 53688  97.6020 183.4602 0003353  78.8679 281.2922 15.01256280173815
STARLINK-4570           
1 53690U 22105AU  25304.23569526  .00000548  00000+0  47182-4 0  9997
2 53690  97.6012 183.4144 0000583 125.6934 234.4345 15.01261093173814
STARLINK-4560           
1 53691U 22105AV  25304.21689508  .00000759  00000+0  56817-4 0  9998
2 53691  97.5990 183.6003 0002111  91.6917 268.4551 15.05648963173823
STARLINK-4572           
1 53692U 22105AW  25304.25795214  .00044540  00000+0  25289-2 0  9998
2 53692  97.6320 185.4182 0005248  29.3050 330.8474 15.12767490173935
STARLINK-4566           
1 53693U 22105AX  25304.23905239  .00001235  00000+0  89805-4 0  9997
2 53693  97.6005 183.7124 0002005  79.4535 280.6917 15.05651267173834
STARLINK-4725           
1 53700U 22107A   25303.16052743  .00000685  00000+0  61150-4 0  9993
2 53700  53.2162 109.7131 0001715  88.3449 271.7740 15.08838362175159
STARLINK-4711           
1 53701U 22107B   25303.15683289  .00001359  00000+0  10346-3 0  9997
2 53701  53.2165 109.6902 0001221  81.1513 278.9618 15.08848264175158
STARLINK-4724           
1 53702U 22107C   25303.84458461  .00001477  00000+0  11086-3 0  9999
2 53702  53.2159  91.9167 0001220  75.8423 284.2705 15.08836356175490
STARLINK-4731           
1 53703U 22107D   25303.83397759  .00001611  00000+0  11928-3 0  9996
2 53703  53.2155 106.8100 0001344  85.2528 274.8618 15.08834342175253
STARLINK-4714           
1 53704U 22107E   25303.94811254  .00000203  00000+0  30870-4 0  9994
2 53704  53.2164 106.8059 0001232  90.1495 269.9638 15.08840563175104
STARLINK-4717           
1 53705U 22107F   25302.75210979 -.00000121  00000+0  10508-4 0  9996
2 53705  53.2158 112.1363 0001338  91.3715 268.7430 15.08839158175083
STARLINK-4716           
1 53706U 22107G   25303.86344671  .00001003  00000+0  81067-4 0  9994
2 53706  53.2151 106.9919 0001333  86.0119 274.1026 15.08843672175256
STARLINK-4667           
1 53707U 22107H   25304.05434667 -.00000655  00000+0 -23089-4 0  9996
2 53707  53.2177  91.0880 0001118  89.8046 270.3074 15.08840168175491
STARLINK-4694           
1 53708U 22107J   25302.71479991  .00000250  00000+0  33796-4 0  9992
2 53708  53.2161  96.9536 0001407  89.4837 270.6317 15.08842863175297
STARLINK-4685           
1 53709U 22107K   25304.29167042 -.00000917  00000+0 -39568-4 0  9994
2 53709  53.2161 109.7027 0001249  92.4340 267.6795 15.08833077174947
STARLINK-4627           
1 53711U 22107M   25304.10400076  .00001256  00000+0  96979-4 0  9998
2 53711  53.2172 110.6547 0001321  91.9121 268.2023 15.08840466174910
STARLINK-4683           
1 53712U 22107N   25303.21708869 -.00000044  00000+0  15330-4 0  9998
2 53712  53.2160 114.3790 0001345  87.6440 272.4706 15.08841244174809
STARLINK-4686           
1 53715U 22107R   25303.50184998 -.00000164  00000+0  78074-5 0  9992
2 53715  53.2155 118.2721 0001350  87.1700 272.9447 15.08837922174763
STARLINK-4699           
1 53716U 22107S   25302.76951532  .00001036  00000+0  83143-4 0  9996
2 53716  53.2142 121.5190 0001272  90.2722 269.8416 15.08848012174649
STARLINK-4695           
1 53718U 22107U   25304.28305464  .00014740  00000+0  94406-3 0  9993
2 53718  53.2154 115.3137 0001593 103.9230 256.1940 15.08769835174868
STARLINK-4644           
1 53719U 22107V   25302.82747920 -.00000059  00000+0  14375-4 0  9996
2 53719  53.2177  91.2060 0001522  92.0562 268.0605 15.08838993175086
STARLINK-4642           
1 53720U 22107W   25303.37307578 -.00003162  00000+0 -18076-3 0  9990
2 53720  53.2139 118.8871 0001879  96.8295 263.2911 15.08816413174744
STARLINK-4707           
1 53721U 22107X   25303.11546368  .00000566  00000+0  53589-4 0  9997
2 53721  53.2149 120.1266 0000998  90.7417 269.3689 15.08854414174708
STARLINK-4700           
1 53722U 22107Y   25302.79164739  .00002835  00000+0  19617-3 0  9993
2 53722  53.2160 121.6550 0001314  93.4661 266.6481 15.08831031174641
STARLINK-4705           
1 53723U 22107Z   25303.22951249  .00001087  00000+0  86326-4 0  9993
2 53723  53.2166 119.4223 0001264  91.3362 268.7775 15.08847637174861
STARLINK-4663           
1 53724U 22107AA  25302.51561813 -.00000150  00000+0  86891-5 0  9998
2 53724  53.2152 122.7777 0001388  87.7086 272.4065 15.08837845174614
